COSMOS 2433 (720)       
1 32275U 07052A   23301.46651748 -.00000059  00000+0  00000+0 0  9996
2 32275  66.0071 348.1354 0005246 241.6589 118.3588  2.13104015124582
COSMOS 2432 (719)       
1 32276U 07052B   23301.54447120 -.00000060  00000+0  00000+0 0  9995
2 32276  66.0216 348.2426 0010121 311.5867  55.1269  2.13103173124587
COSMOS 2434 (721)       
1 32393U 07065A   23302.19961302  .00000007  00000+0  00000+0 0  9994
2 32393  64.3310 224.4434 0002301  69.2166  24.5674  2.13103038123306
COSMOS 2436 (723)       
1 32395U 07065C   23302.07377450  .00000006  00000+0  00000+0 0  9997
2 32395  64.3397 224.5099 0016442 359.8171 132.8760  2.13102671123239
COSMOS 2456 (730)       
1 36111U 09070A   23302.35288999  .00000031  00000+0  00000+0 0  9993
2 36111  64.5148 103.9167 0001229 329.3242  40.4178  2.13099052107977
COSMOS 2457 (733)       
1 36112U 09070B   23302.36331090  .00000031  00000+0  00000+0 0  9996
2 36112  64.4988 103.7803 0006574 149.2210 359.7351  2.13101240107978
COSMOS 2460 (732)       
1 36402U 10007C   23301.86496877 -.00000060  00000+0  00000+0 0  9992
2 36402  65.8683 346.8282 0002327 244.1247 231.5535  2.13106195106227
COSMOS 2476 (744)       
1 37867U 11064A   23301.52266781  .00000044  00000+0  00000+0 0  9995
2 37867  64.7931 105.4929 0021576 230.0592 132.5503  2.13101645 93302
COSMOS 2477 (745)       
1 37868U 11064B   23301.76909503  .00000041  00000+0  00000+0 0  9995
2 37868  64.8005 105.5546 0018777 230.0901 139.4283  2.13101505 93255
COSMOS 2475 (743)       
1 37869U 11064C   23301.81741640  .00000041  00000+0  00000+0 0  9998
2 37869  64.8077 105.5657 0022688 248.4765 116.6501  2.13101782 93263
COSMOS 2485 (747)       
1 39155U 13019A   23301.93042809  .00000041  00000+0  00000+0 0  9994
2 39155  64.9532 106.0143 0022127 226.1041 133.7222  2.13101770 81774
COSMOS 2492 (754)       
1 39620U 14012A   23302.35525594 -.00000063  00000+0  00000+0 0  9994
2 39620  65.7515 346.4224 0013325 310.7501  49.2033  2.13103077 74744
COSMOS 2500 (755)       
1 40001U 14032A   23302.53781255 -.00000064  00000+0  00000+0 0  9990
2 40001  65.6897 346.2395 0008586 213.7411 146.2723  2.13105902 72968
COSMOS 2501 (702K)      
1 40315U 14075A   23302.31910833  .00000008  00000+0  00000+0 0  9994
2 40315  63.6339 223.7450 0018964 208.5409 151.3753  2.13101199 69359
COSMOS 2514 (751)       
1 41330U 16008A   23301.36207948 -.00000058  00000+0  00000+0 0  9996
2 41330  65.4867 345.8468 0012550 217.2915 142.6911  2.13102491 60101
COSMOS 2522 (752)       
1 42939U 17055A   23301.67285160  .00000002  00000+0  00000+0 0  9999
2 42939  64.0947 224.7248 0007794 241.5839 118.3519  2.13101950 47468
COSMOS 2527 (756)       
1 43508U 18053A   23301.63152788  .00000045  00000+0  00000+0 0  9993
2 43508  65.1139 106.1282 0007805 213.2015 146.7606  2.13102354 41760
COSMOS 2529 (757)       
1 43687U 18086A   23301.73086776  .00000002  00000+0  00000+0 0  9994
2 43687  64.3100 225.1729 0009474 264.7531  95.1525  2.13101999 38771
COSMOS 2534 (758)       
1 44299U 19030A   23301.96472428  .00000004  00000+0  00000+0 0  9994
2 44299  64.3828 225.0964 0011866 286.0548  27.5004  2.13101787 34414
COSMOS 2544 (759)       
1 44850U 19088A   23301.10605883  .00000052  00000+0  00000+0 0  9992
2 44850  65.0999 105.9876 0011362 247.4400 112.4538  2.13102125 30195
COSMOS 2545 (760)       
1 45358U 20018A   23301.77222919 -.00000062  00000+0  00000+0 0  9991
2 45358  64.8269 346.0336 0011692 245.1441 114.8029  2.13102484 28153
COSMOS 2547 (705K)      
1 46805U 20075A   23301.49168445  .00000000  00000+0  00000+0 0  9995
2 46805  64.6105 224.6846 0007145 242.5900 117.3506  2.13102752 23391
COSMOS 2557 (706K)      
1 52984U 22075A   23301.65458742 -.00000063  00000+0  00000+0 0  9992
2 52984  64.7453 348.1912 0013466 276.1846  83.7311  2.13102112 10200
COSMOS 2559 (707K)      
1 54031U 22130A   23302.06601368 -.00000065  00000+0  00000+0 0  9991
2 54031  64.7166 348.3026 0007947 227.4206 132.5808  2.13101374  8187
COSMOS 2564 (761)       
1 54377U 22161A   23301.78955694  .00000003  00000+0  00000+0 0  9991
2 54377  64.7513 224.7374 0009115 221.2550 138.6909  2.13102141  7127
COSMOS 2569 (703K)      
1 57517U 23114A   23301.80880542  .00000040  00000+0  00000+0 0  9992
2 57517  64.8236 105.1981 0008616 294.6512  65.2674  2.13104044  1753
